ONEWEB-0228             
1 48780U 21045P   23353.74660684 -.00000130  00000+0 -37941-3 0  9998
2 48780  87.9001  80.4265 0001605 105.9164 254.2144 13.15540798125752
